{"type": "FeatureCollection", "features": [ {"type": "Feature", "properties": {"norad_id": 30500, "name": "FENGYUN 1C DEB", "group": "fengyun-1c-debris", "lat": 45.7572575701873, "lon": 67.29336027401921, "alt_km": 790.6456345156639, "timestamp": "2025-12-11T07:02:24.007091+00:00", "meta": {"OBJECT_NAME": "FENGYUN 1C DEB", "OBJECT_ID": "1999-025AHN", "EPOCH": "2025-12-10T22:39:04.438368", "MEAN_MOTION": 14.25158713, "ECCENTRICITY": 0.00650207, "INCLINATION": 99.072, "RA_OF_ASC_NODE": 76.3745, "ARG_OF_PERICENTER": 121.4449, "MEAN_ANOMALY": 293.5547, "EPHEMERIS_TYPE": 0, "CLASSIFICATION_TYPE": "U", "NORAD_CAT_ID": 30500, "ELEMENT_SET_NO": 999, "REV_AT_EPOCH": 96656, "BSTAR": 0.0038391016, "MEAN_MOTION_DOT": 9.179e-05, "MEAN_MOTION_DDOT": 0}, "tle": {"line1": "1 30500U 99025AHN 25344.94380137  .00009179  00000+0  38391-2 0  9997", "line2": "2 30500  99.0720  76.3745 0065020 121.4449 293.5547 14.25158713966561"}}, "geometry": {"type": "Point", "coordinates": [67.29336027401921, 45.7572575701873]}}, {"type": "Feature", "properties": {"norad_id": 30501, "name": "FENGYUN 1C DEB", "group": "fengyun-1c-debris", "lat": -6.061786651434244, "lon": -22.97925804345874, "alt_km": 835.4812793967549, "timestamp": "2025-12-11T07:02:24.007102+00:00", "meta": {"OBJECT_NAME": "FENGYUN 1C DEB", "OBJECT_ID": "1999-025AHP", "EPOCH": "2025-12-10T22:46:40.283904", "MEAN_MOTION": 14.25318052, "ECCENTRICITY": 0.00406072, "INCLINATION": 99.0842, "RA_OF_ASC_NODE": 335.6909, "ARG_OF_PERICENTER": 208.0891, "MEAN_ANOMALY": 180.1939, "EPHEMERIS_TYPE": 0, "CLASSIFICATION_TYPE": "U", "NORAD_CAT_ID": 30501, "ELEMENT_SET_NO": 999, "REV_AT_EPOCH": 96894, "BSTAR": 0.0024157352, "MEAN_MOTION_DOT": 5.695e-05, "MEAN_MOTION_DDOT": 0}, "tle": {"line1": "1 30501U 99025AHP 25344.94907736  .00005695  00000+0  24157-2 0  9992", "line2": "2 30501  99.0842 335.6909 0040607 208.0891 180.1939 14.25318052968941"}}, "geometry": {"type": "Point", "coordinates": [-22.97925804345874, -6.061786651434244]}}, {"type": "Feature", "properties": {"norad_id": 30503, "name": "FENGYUN 1C DEB", "group": "fengyun-1c-debris", "lat": -74.49638481484187, "lon": -27.007146826886647, "alt_km": 839.9485562475511, "timestamp": "2025-12-11T07:02:24.007112+00:00", "meta": {"OBJECT_NAME": "FENGYUN 1C DEB", "OBJECT_ID": "1999-025AHR", "EPOCH": "2025-12-10T08:37:20.171136", "MEAN_MOTION": 14.16120957, "ECCENTRICITY": 0.00083121, "INCLINATION": 99.2046, "RA_OF_ASC_NODE": 187.7993, "ARG_OF_PERICENTER": 273.996, "MEAN_ANOMALY": 264.1711, "EPHEMERIS_TYPE": 0, "CLASSIFICATION_TYPE": "U", "NORAD_CAT_ID": 30503, "ELEMENT_SET_NO": 999, "REV_AT_EPOCH": 97312, "BSTAR": 0.00042619946, "MEAN_MOTION_DOT": 7.95e-06, "MEAN_MOTION_DDOT": 0}, "tle": {"line1": "1 30503U 99025AHR 25344.35926124  .00000795  00000+0  42620-3 0  9993", "line2": "2 30503  99.2046 187.7993 0008312 273.9960 264.1711 14.16120957973127"}}, "geometry": {"type": "Point", "coordinates": [-27.007146826886647, -74.49638481484187]}}, {"type": "Feature", "properties": {"norad_id": 30504, "name": "FENGYUN 1C DEB", "group": "fengyun-1c-debris", "lat": 80.32250399893084, "lon": -37.31292526989555, "alt_km": 871.9363864038041, "timestamp": "2025-12-11T07:02:24.007122+00:00", "meta": {"OBJECT_NAME": "FENGYUN 1C DEB", "OBJECT_ID": "1999-025AHS", "EPOCH": "2025-12-10T21:18:14.225760", "MEAN_MOTION": 14.20485068, "ECCENTRICITY": 0.01120707, "INCLINATION": 99.0255, "RA_OF_ASC_NODE": 31.0302, "ARG_OF_PERICENTER": 221.7313, "MEAN_ANOMALY": 312.3819, "EPHEMERIS_TYPE": 0, "CLASSIFICATION_TYPE": "U", "NORAD_CAT_ID": 30504, "ELEMENT_SET_NO": 999, "REV_AT_EPOCH": 97367, "BSTAR": 0.00077595748, "MEAN_MOTION_DOT": 1.728e-05, "MEAN_MOTION_DDOT": 0}, "tle": {"line1": "1 30504U 99025AHS 25344.88766465  .00001728  00000+0  77596-3 0  9999", "line2": "2 30504  99.0255  31.0302 0112070 221.7313 312.3819 14.20485068973670"}}, "geometry": {"type": "Point", "coordinates": [-37.31292526989555, 80.32250399893084]}}, {"type": "Feature", "properties": {"norad_id": 30505, "name": "FENGYUN 1C DEB", "group": "fengyun-1c-debris", "lat": -19.618223883960837, "lon": 68.14558008788453, "alt_km": 826.5982469821993, "timestamp": "2025-12-11T07:02:24.007133+00:00", "meta": {"OBJECT_NAME": "FENGYUN 1C DEB", "OBJECT_ID": "1999-025AHT", "EPOCH": "2025-12-10T04:15:21.342240", "MEAN_MOTION": 14.22004317, "ECCENTRICITY": 0.00633826, "INCLINATION": 98.9256, "RA_OF_ASC_NODE": 63.8054, "ARG_OF_PERICENTER": 249.3419, "MEAN_ANOMALY": 140.2991, "EPHEMERIS_TYPE": 0, "CLASSIFICATION_TYPE": "U", "NORAD_CAT_ID": 30505, "ELEMENT_SET_NO": 999, "REV_AT_EPOCH": 96887, "BSTAR": 0.0023995419, "MEAN_MOTION_DOT": 5.369e-05, "MEAN_MOTION_DDOT": 0}, "tle": {"line1": "1 30505U 99025AHT 25344.17733035  .00005369  00000+0  23995-2 0  9997", "line2": "2 30505  98.9256  63.8054 0063382 249.3419 140.2991 14.22004317968872"}}, "geometry": {"type": "Point", "coordinates": [68.14558008788453, -19.618223883960837]}}, {"type": "Feature", "properties": {"norad_id": 30506, "name": "FENGYUN 1C DEB", "group": "fengyun-1c-debris", "lat": 75.65113650527954, "lon": -46.64409388272444, "alt_km": 853.3658971604791, "timestamp": "2025-12-11T07:02:24.007143+00:00", "meta": {"OBJECT_NAME": "FENGYUN 1C DEB", "OBJECT_ID": "1999-025AHU", "EPOCH": "2025-12-10T19:35:00.381696", "MEAN_MOTION": 14.08647462, "ECCENTRICITY": 0.00703783, "INCLINATION": 98.757, "RA_OF_ASC_NODE": 349.9455, "ARG_OF_PERICENTER": 353.4219, "MEAN_ANOMALY": 184.9953, "EPHEMERIS_TYPE": 0, "CLASSIFICATION_TYPE": "U", "NORAD_CAT_ID": 30506, "ELEMENT_SET_NO": 999, "REV_AT_EPOCH": 96794, "BSTAR": 0.00046523285, "MEAN_MOTION_DOT": 7.76e-06, "MEAN_MOTION_DDOT": 0}, "tle": {"line1": "1 30506U 99025AHU 25344.81597664  .00000776  00000+0  46523-3 0  9995", "line2": "2 30506  98.7570 349.9455 0070378 353.4219 184.9953 14.08647462967949"}}, "geometry": {"type": "Point", "coordinates": [-46.64409388272444, 75.65113650527954]}}, {"type": "Feature", "properties": {"norad_id": 30507, "name": "FENGYUN 1C DEB", "group": "fengyun-1c-debris", "lat": 9.21824012945404, "lon": -128.75765505014135, "alt_km": 758.6910291371032, "timestamp": "2025-12-11T07:02:24.007154+00:00", "meta": {"OBJECT_NAME": "FENGYUN 1C DEB", "OBJECT_ID": "1999-025AHV", "EPOCH": "2025-12-10T22:33:52.397856", "MEAN_MOTION": 14.13164072, "ECCENTRICITY": 0.01283961, "INCLINATION": 99.0136, "RA_OF_ASC_NODE": 49.4106, "ARG_OF_PERICENTER": 181.3495, "MEAN_ANOMALY": 353.865, "EPHEMERIS_TYPE": 0, "CLASSIFICATION_TYPE": "U", "NORAD_CAT_ID": 30507, "ELEMENT_SET_NO": 999, "REV_AT_EPOCH": 96472, "BSTAR": 0.0019554609, "MEAN_MOTION_DOT": 3.913e-05, "MEAN_MOTION_DDOT": 0}, "tle": {"line1": "1 30507U 99025AHV 25344.94018979  .00003913  00000+0  19555-2 0  9997", "line2": "2 30507  99.0136  49.4106 0128396 181.3495 353.8650 14.13164072964726"}}, "geometry": {"type": "Point", "coordinates": [-128.75765505014135, 9.21824012945404]}}, {"type": "Feature", "properties": {"norad_id": 30509, "name": "FENGYUN 1C DEB", "group": "fengyun-1c-debris", "lat": 11.380849192482788, "lon": -144.49103016447017, "alt_km": 827.0597703851499, "timestamp": "2025-12-11T07:02:24.007164+00:00", "meta": {"OBJECT_NAME": "FENGYUN 1C DEB", "OBJECT_ID": "1999-025AHX", "EPOCH": "2025-12-09T14:10:58.156896", "MEAN_MOTION": 14.07616411, "ECCENTRICITY": 0.0101371, "INCLINATION": 98.4647, "RA_OF_ASC_NODE": 215.6308, "ARG_OF_PERICENTER": 72.3189, "MEAN_ANOMALY": 318.358, "EPHEMERIS_TYPE": 0, "CLASSIFICATION_TYPE": "U", "NORAD_CAT_ID": 30509, "ELEMENT_SET_NO": 999, "REV_AT_EPOCH": 95678, "BSTAR": 0.0029808, "MEAN_MOTION_DOT": 5.238e-05, "MEAN_MOTION_DDOT": 0}, "tle": {"line1": "1 30509U 99025AHX 25343.59095089  .00005238  00000+0  29808-2 0  9990", "line2": "2 30509  98.4647 215.6308 0101371  72.3189 318.3580 14.07616411956789"}}, "geometry": {"type": "Point", "coordinates": [-144.49103016447017, 11.380849192482788]}}, {"type": "Feature", "properties": {"norad_id": 30510, "name": "FENGYUN 1C DEB", "group": "fengyun-1c-debris", "lat": 34.33577055420654, "lon": -9.112191128652743, "alt_km": 887.5992782403737, "timestamp": "2025-12-11T07:02:24.007174+00:00", "meta": {"OBJECT_NAME": "FENGYUN 1C DEB", "OBJECT_ID": "1999-025AHY", "EPOCH": "2025-12-10T12:53:37.357152", "MEAN_MOTION": 14.12832157, "ECCENTRICITY": 0.00786803, "INCLINATION": 99.245, "RA_OF_ASC_NODE": 356.4952, "ARG_OF_PERICENTER": 172.3801, "MEAN_ANOMALY": 339.6609, "EPHEMERIS_TYPE": 0, "CLASSIFICATION_TYPE": "U", "NORAD_CAT_ID": 30510, "ELEMENT_SET_NO": 999, "REV_AT_EPOCH": 96543, "BSTAR": 0.0017476981, "MEAN_MOTION_DOT": 3.3e-05, "MEAN_MOTION_DDOT": 0}, "tle": {"line1": "1 30510U 99025AHY 25344.53723793  .00003300  00000+0  17477-2 0  9994", "line2": "2 30510  99.2450 356.4952 0078680 172.3801 339.6609 14.12832157965432"}}, "geometry": {"type": "Point", "coordinates": [-9.112191128652743, 34.33577055420654]}}, {"type": "Feature", "properties": {"norad_id": 30514, "name": "FENGYUN 1C DEB", "group": "fengyun-1c-debris", "lat": 67.44859833525128, "lon": -12.018474614245484, "alt_km": 661.2515800791452, "timestamp": "2025-12-11T07:02:24.007185+00:00", "meta": {"OBJECT_NAME": "FENGYUN 1C DEB", "OBJECT_ID": "1999-025AJC", "EPOCH": "2025-12-10T19:00:17.070336", "MEAN_MOTION": 14.34344778, "ECCENTRICITY": 0.01745549, "INCLINATION": 98.4136, "RA_OF_ASC_NODE": 8.3731, "ARG_OF_PERICENTER": 99.8889, "MEAN_ANOMALY": 262.2051, "EPHEMERIS_TYPE": 0, "CLASSIFICATION_TYPE": "U", "NORAD_CAT_ID": 30514, "ELEMENT_SET_NO": 999, "REV_AT_EPOCH": 98197, "BSTAR": 0.0007172766, "MEAN_MOTION_DOT": 2.348e-05, "MEAN_MOTION_DDOT": 0}, "tle": {"line1": "1 30514U 99025AJC 25344.79186424  .00002348  00000+0  71728-3 0  9991", "line2": "2 30514  98.4136   8.3731 0174554  99.8889 262.2051 14.34344778981972"}}, "geometry": {"type": "Point", "coordinates": [-12.018474614245484, 67.44859833525128]}}]}